1 42043U 17008CZ  21057.93109171  .00004675  00000-0  17540-3 0  9997
2 42043  97.3381 128.1769 0009308 116.8941 243.3251 15.27670658223598
1 42043U 17008CZ  21058.45510133  .00004622  00000-0  17341-3 0  9990
2 42043  97.3378 128.6925 0009301 115.3651 244.8552 15.27676169223670
1 42043U 17008CZ  21058.71710589  .00003928  00000-0  14779-3 0  9996
2 42043  97.3377 128.9504 0009306 114.6717 245.5493 15.27677366223712
1 42043U 17008CZ  21058.84810783  .00003223  00000-0  12174-3 0  9992
2 42043  97.3377 129.0793 0009315 114.2983 245.9230 15.27677310223739
1 42043U 17008CZ  21059.43761629  .00003795  00000-0  14287-3 0  9993
2 42043  97.3375 129.6595 0009320 112.5287 247.6940 15.27682952223822
1 42043U 17008CZ  21059.83062124  .00003387  00000-0  12777-3 0  9990
2 42043  97.3374 130.0462 0009324 111.2911 248.9325 15.27684981223885
1 42043U 17008CZ  21059.89612205  .00003190  00000-0  12050-3 0  9993
2 42043  97.3374 130.1107 0009328 111.1141 249.1097 15.27684931223895
1 42043U 17008CZ  21060.28912595  .00003372  00000-0  12720-3 0  9999
2 42043  97.3372 130.4974 0009343 109.9503 250.2744 15.27688321223958
1 42043U 17008CZ  21060.61662790  .00004473  00000-0  16784-3 0  9992
2 42043  97.3371 130.8198 0009357 108.9840 251.2414 15.27693730224009
1 42043U 17008CZ  21060.87862928  .00004496  00000-0  16865-3 0  9990
2 42043  97.3370 131.0776 0009363 108.2069 252.0190 15.27695794224042
1 42043U 17008CZ  21061.86112977  .00005444  00000-0  20358-3 0  9998
2 42043  97.3367 132.0446 0009369 105.3671 254.8604 15.27707271224196
1 42043U 17008CZ  21062.18862809  .00005569  00000-0  20815-3 0  9996
2 42043  97.3365 132.3670 0009360 104.4843 255.7436 15.27711253224242
1 42043U 17008CZ  21062.45062592  .00006004  00000-0  22417-3 0  9992
2 42043  97.3366 132.6248 0009367 103.7346 256.4937 15.27715401224281
1 42043U 17008CZ  21063.43311276  .00006150  00000-0  22945-3 0  9995
2 42043  97.3364 133.5918 0009376 100.8209 259.4087 15.27728477224432
1 42043U 17008CZ  21063.89160461  .00005033  00000-0  18828-3 0  9997
2 42043  97.3364 134.0430 0009380  99.5165 260.7135 15.27731737224507
1 42043U 17008CZ  21064.41559328  .00005022  00000-0  18785-3 0  9990
2 42043  97.3363 134.5588 0009387  97.9660 262.2645 15.27737465224589
1 42043U 17008CZ  21064.67758721  .00004683  00000-0  17535-3 0  9990
2 42043  97.3363 134.8166 0009378  97.2241 263.0065 15.27739423224628
1 42043U 17008CZ  21064.74308559  .00004683  00000-0  17532-3 0  9995
2 42043  97.3364 134.8811 0009377  97.0576 263.1731 15.27740055224639
1 42043U 17008CZ  21065.46356635  .00004542  00000-0  17012-3 0  9990
2 42043  97.3363 135.5902 0009361  94.9250 265.3059 15.27746215224748
1 42043U 17008CZ  21065.92205266  .00004333  00000-0  16238-3 0  9991
2 42043  97.3363 136.0415 0009352  93.6485 266.5824 15.27749792224813
1 42043U 17008CZ  21066.11854631  .00004422  00000-0  16564-3 0  9990
2 42043  97.3363 136.2348 0009344  93.0598 267.1711 15.27751834224845
1 42043U 17008CZ  21066.64252875  .00004176  00000-0  15658-3 0  9999
2 42043  97.3363 136.7505 0009340  91.5761 268.6548 15.27755732224920
1 42043U 17008CZ  21067.16650963  .00004240  00000-0  15892-3 0  9999
2 42043  97.3363 137.2662 0009344  90.0315 270.1995 15.27760283225004
1 42043U 17008CZ  21067.49399710  .00004030  00000-0  15118-3 0  9993
2 42043  97.3364 137.5885 0009345  89.0879 271.1432 15.27762326225051
1 42043U 17008CZ  21067.82148413  .00003892  00000-0  14609-3 0  9991
2 42043  97.3364 137.9108 0009339  88.0616 272.1693 15.27764440225109
1 42043U 17008CZ  21068.41095886  .00004128  00000-0  15473-3 0  9995
2 42043  97.3364 138.4910 0009323  86.3664 273.8641 15.27769699225194
1 42043U 17008CZ  21068.73844426  .00004012  00000-0  15045-3 0  9999
2 42043  97.3363 138.8133 0009314  85.4147 274.8156 15.27771918225245
1 42043U 17008CZ  21069.45891016  .00003833  00000-0  14386-3 0  9993
2 42043  97.3362 139.5224 0009288  83.3820 276.8476 15.27776839225354
1 42043U 17008CZ  21069.85189063  .00003515  00000-0  13215-3 0  9996
2 42043  97.3360 139.9091 0009269  82.1766 278.0526 15.27779014225418
1 42043U 17008CZ  21070.44135993  .00003480  00000-0  13084-3 0  9991
2 42043  97.3359 140.4891 0009243  80.5168 279.7116 15.27783229225507
1 42043U 17008CZ  21070.76884244  .00003366  00000-0  12664-3 0  9992
2 42043  97.3358 140.8114 0009236  79.5803 280.6477 15.27785189225557
1 42043U 17008CZ  21071.09632483  .00003231  00000-0  12166-3 0  9993
2 42043  97.3356 141.1336 0009225  78.5700 281.6575 15.27786576225605
1 42043U 17008CZ  21071.75128668  .00003782  00000-0  14192-3 0  9993
2 42043  97.3355 141.7781 0009222  76.7122 283.5146 15.27792679225706
1 42043U 17008CZ  21072.14426269  .00004115  00000-0  15416-3 0  9996
2 42043  97.3353 142.1649 0009196  75.5206 284.7053 15.27796352225760
1 42043U 17008CZ  21072.47174165  .00004596  00000-0  17183-3 0  9993
2 42043  97.3353 142.4871 0009187  74.6222 285.6032 15.27800284225811
1 42043U 17008CZ  21072.73372412  .00005086  00000-0  18982-3 0  9990
2 42043  97.3351 142.7448 0009170  73.8650 286.3598 15.27804021225852
1 42043U 17008CZ  21073.19219220  .00005310  00000-0  19803-3 0  9991
2 42043  97.3349 143.1960 0009135  72.4959 287.7278 15.27809342225920
1 42043U 17008CZ  21073.45417314  .00005792  00000-0  21573-3 0  9995
2 42043  97.3348 143.4537 0009122  71.7499 288.4733 15.27813335225964
1 42043U 17008CZ  21074.43659539  .00006260  00000-0  23284-3 0  9993
2 42043  97.3345 144.4204 0009066  68.7472 291.4735 15.27827830226116
1 42043U 17008CZ  21074.76406796  .00005813  00000-0  21639-3 0  9999
2 42043  97.3344 144.7426 0009044  67.7269 292.4928 15.27831312226163
1 42043U 17008CZ  21075.41901116  .00004818  00000-0  17981-3 0  9997
2 42043  97.3341 145.3871 0009023  65.8611 294.3571 15.27836682226269
1 42043U 17008CZ  21075.68098780  .00004688  00000-0  17500-3 0  9992
2 42043  97.3341 145.6449 0009004  65.0532 295.1642 15.27839168226301
1 42043U 17008CZ  21075.87747008  .00004334  00000-0  16198-3 0  9997
2 42043  97.3340 145.8383 0008989  64.5268 295.6901 15.27840239226337
1 42043U 17008CZ  21076.40142173  .00004236  00000-0  15837-3 0  9999
2 42043  97.3339 146.3539 0008950  62.9448 297.2704 15.27844540226411
1 42043U 17008CZ  21076.72889087  .00004055  00000-0  15172-3 0  9997
2 42043  97.3338 146.6762 0008927  61.9315 298.2826 15.27846933226466
1 42043U 17008CZ  21076.85987842  .00003755  00000-0  14068-3 0  9998
2 42043  97.3338 146.8051 0008915  61.5018 298.7118 15.27847173226480
1 42043U 17008CZ  21077.44932094  .00004399  00000-0  16432-3 0  9995
2 42043  97.3337 147.3851 0008865  59.7322 300.4794 15.27853316226571
1 42043U 17008CZ  21077.77678888  .00003649  00000-0  13677-3 0  9994
2 42043  97.3336 147.7073 0008845  58.7976 301.4129 15.27853789226625
1 42043U 17008CZ  21077.84228241  .00003198  00000-0  12022-3 0  9998
2 42043  97.3336 147.7718 0008839  58.5860 301.6242 15.27853152226637
1 42043U 17008CZ  21078.43172271  .00003726  00000-0  13960-3 0  9994
2 42043  97.3336 148.3518 0008800  56.8607 303.3475 15.27858510226720
1 42043U 17008CZ  21078.75918888  .00003980  00000-0  14889-3 0  9994
2 42043  97.3336 148.6740 0008788  55.9138 304.2935 15.27861388226777
1 42043U 17008CZ  21079.15214750  .00003939  00000-0  14738-3 0  9993
2 42043  97.3335 149.0608 0008757  54.7077 305.4980 15.27864107226831
1 42043U 17008CZ  21079.67609027  .00005309  00000-0  19762-3 0  9990
2 42043  97.3335 149.5764 0008728  53.1543 307.0496 15.27871676226916
1 42043U 17008CZ  21080.13453807  .00005708  00000-0  21223-3 0  9994
2 42043  97.3335 150.0275 0008688  51.7192 308.4828 15.27877200226989
1 42043U 17008CZ  21081.18241059  .00007388  00000-0  27375-3 0  9994
2 42043  97.3334 151.0587 0008583  48.5563 311.6413 15.27894770227141
1 42043U 17008CZ  21081.44437710  .00006910  00000-0  25621-3 0  9996
2 42043  97.3335 151.3165 0008541  47.5695 312.6265 15.27897568227184
1 42043U 17008CZ  21081.90281735  .00006352  00000-0  23570-3 0  9992
2 42043  97.3336 151.7676 0008511  46.1141 314.0800 15.27903040227256
1 42043U 17008CZ  21082.42674713  .00005263  00000-0  19574-3 0  9991
2 42043  97.3336 152.2833 0008473  44.5716 315.6204 15.27908002227331
1 42043U 17008CZ  21082.75420257  .00005682  00000-0  21107-3 0  9999
2 42043  97.3336 152.6055 0008445  43.5329 316.6576 15.27912064227380
1 42043U 17008CZ  21083.14714777  .00005752  00000-0  21363-3 0  9998
2 42043  97.3337 152.9922 0008414  42.2664 317.9223 15.27916658227444
1 42043U 17008CZ  21083.60558283  .00005785  00000-0  21480-3 0  9993
2 42043  97.3336 153.4433 0008371  40.8056 319.3809 15.27921180227517
1 42043U 17008CZ  21084.45695759  .00006100  00000-0  22630-3 0  9997
2 42043  97.3334 154.2811 0008275  38.0759 322.1064 15.27931076227640
1 42043U 17008CZ  21084.65342782  .00006234  00000-0  23116-3 0  9992
2 42043  97.3334 154.4744 0008247  37.4157 322.7656 15.27933782227673
1 42043U 17008CZ  21085.76675387  .00006146  00000-0  22788-3 0  9991
2 42043  97.3333 155.5699 0008141  33.8706 326.3052 15.27946788227845
1 42043U 17008CZ  21085.89773292  .00006118  00000-0  22684-3 0  9993
2 42043  97.3333 155.6988 0008126  33.4769 326.6983 15.27948082227862
1 42043U 17008CZ  21086.42164753  .00006044  00000-0  22408-3 0  9991
2 42043  97.3331 156.2143 0008082  31.9718 328.2011 15.27953702227942
1 42043U 17008CZ  21086.81458244  .00005680  00000-0  21076-3 0  9990
2 42043  97.3330 156.6010 0008042  30.5958 329.5749 15.27957204228006
1 42043U 17008CZ  21087.46947149  .00005516  00000-0  20469-3 0  9992
2 42043  97.3328 157.2455 0007967  28.4401 331.7272 15.27963552228107
1 42043U 17008CZ  21087.73142633  .00005596  00000-0  20760-3 0  9999
2 42043  97.3326 157.5032 0007939  27.5401 332.6258 15.27966467228144
1 42043U 17008CZ  21088.12435792  .00004721  00000-0  17559-3 0  9995
2 42043  97.3324 157.8897 0007898  26.1296 334.0341 15.27968704228207
1 42043U 17008CZ  21088.25533483  .00004690  00000-0  17442-3 0  9991
2 42043  97.3323 158.0185 0007879  25.6683 334.4946 15.27969947228229
